0 SCOUT A R/B
1 02120U 66024B   13281.19084758  .00000092  00000-0  80519-4 0  8997
2 02120 089.7037 283.5202 0152549 090.9788 325.8986 13.71770114376795
0 SCOUT A R/B
1 02120U 66024B   13283.47353676  .00000110  00000-0  99252-4 0  9006
2 02120 089.7035 283.4494 0152468 084.2232 078.5746 13.71770744377106
0 SCOUT A R/B
1 02120U 66024B   13285.85889957  .00000088  00000-0  77241-4 0  9015
2 02120 089.7033 283.3753 0152357 077.1561 338.2980 13.71771224377430
0 SCOUT A R/B
1 02120U 66024B   13288.11802912  .00000100  00000-0  88884-4 0  9024
2 02120 089.7035 283.3049 0152222 070.4600 334.6460 13.71771846377748
0 SCOUT A R/B
1 02120U 66024B   13290.39918883  .00000096  00000-0  85316-4 0  9034
2 02120 089.7039 283.2337 0152057 063.6889 079.8020 13.71772292378051
0 SCOUT A R/B
1 02120U 66024B   13292.44343839  .00000123  00000-0  11274-3 0  9048
2 02120 089.7042 283.1700 0151897 057.6186 095.0203 13.71772647378330
0 SCOUT A R/B
1 02120U 66024B   13294.47755757  .00000145  00000-0  13546-3 0  9058
2 02120 089.7044 283.1068 0151724 051.5725 060.2194 13.71773032378613
